[{"OBJECT_NAME":"OBJECT E","OBJECT_ID":"2024-092E","EPOCH":"2026-03-09T21:25:47.709120","MEAN_MOTION":15.32997986,"ECCENTRICITY":0.0008531,"INCLINATION":97.642,"RA_OF_ASC_NODE":198.2099,"ARG_OF_PERICENTER":142.2606,"MEAN_ANOMALY":217.9236,"EPHEMERIS_TYPE":0,"CLASSIFICATION_TYPE":"U","NORAD_CAT_ID":59777,"ELEMENT_SET_NO":999,"REV_AT_EPOCH":10051,"BSTAR":0.00078641119,"MEAN_MOTION_DOT":0.00025066,"MEAN_MOTION_DDOT":0},{"OBJECT_NAME":"STARLINK-35631","OBJECT_ID":"2025-237H","EPOCH":"2026-03-09T22:11:23.438976","MEAN_MOTION":15.30224149,"ECCENTRICITY":0.00014792,"INCLINATION":53.1604,"RA_OF_ASC_NODE":38.7377,"ARG_OF_PERICENTER":95.9433,"MEAN_ANOMALY":264.1737,"EPHEMERIS_TYPE":0,"CLASSIFICATION_TYPE":"U","NORAD_CAT_ID":66121,"ELEMENT_SET_NO":999,"REV_AT_EPOCH":2264,"BSTAR":0.0013195166,"MEAN_MOTION_DOT":0.00038956,"MEAN_MOTION_DDOT":0}]
